CCSDS_OMM_VERS,COMMENT,CREATION_DATE,ORIGINATOR,OBJECT_NAME,OBJECT_ID,CENTER_NAME,REF_FRAME,TIME_SYSTEM,MEAN_ELEMENT_THEORY,EPOCH,MEAN_MOTION,ECCENTRICITY,INCLINATION,RA_OF_ASC_NODE,ARG_OF_PERICENTER,MEAN_ANOMALY,EPHEMERIS_TYPE,CLASSIFICATION_TYPE,NORAD_CAT_ID,ELEMENT_SET_NO,REV_AT_EPOCH,BSTAR,MEAN_MOTION_DOT,MEAN_MOTION_DDOT,SEMIMAJOR_AXIS,PERIOD,APOAPSIS,PERIAPSIS,OBJECT_TYPE,RCS_SIZE,COUNTRY_CODE,LAUNCH_DATE,SITE,DECAY_DATE,FILE,GP_ID,TLE_LINE0,TLE_LINE1,TLE_LINE2
"2.0","GENERATED VIA SPACE-TRACK.ORG API","2020-11-20T03:36:31","18 SPCS","SL-18 DEB","1993-014BJ","EARTH","TEME","UTC","SGP4","2020-11-19T13:44:41.940960","14.81943011","0.00728060","75.7389","280.7718","191.7122","168.2376","0","U","35359","999","70525","0.00051348000000","0.00004242","0.0000000000000","7001.334","97.169","674.173","572.225","DEBRIS","SMALL","CIS","1993-03-25","PKMTR","","2881187","165898781","0 SL-18 DEB","1 35359U 93014BJ  20324.57270765 +.00004242 +00000-0 +51348-3 0  9998","2 35359 075.7389 280.7718 0072806 191.7122 168.2376 14.81943011705259"
"2.0","GENERATED VIA SPACE-TRACK.ORG API","2020-11-19T12:46:10","18 SPCS","SL-18 DEB","1993-014BJ","EARTH","TEME","UTC","SGP4","2020-11-19T05:38:37.086144","14.81940574","0.00728470","75.7390","281.3692","192.5800","167.3573","0","U","35359","999","70586","0.00053459000000","0.00004417","0.0000000000000","7001.342","97.169","674.210","572.204","DEBRIS","SMALL","CIS","1993-03-25","PKMTR","","2880595","165853671","0 SL-18 DEB","1 35359U 93014BJ  20324.23515146  .00004417  00000-0  53459-3 0  9995","2 35359  75.7390 281.3692 0072847 192.5800 167.3573 14.81940574705863"
"2.0","GENERATED VIA SPACE-TRACK.ORG API","2020-11-19T06:26:10","18 SPCS","IRIDIUM 176","2019-002B","EARTH","TEME","UTC","SGP4","2020-11-18T23:34:41.628000","14.72248367","0.00021370","86.6079","124.5931","86.6223","273.5239","0","U","43923","999","9966","0.00000169120000","0.00000035","0.0000000000000","7032.036","97.809","655.404","652.398","PAYLOAD","LARGE","US","2019-01-11","AFWTR","","2879987","165838764","0 IRIDIUM 176","1 43923U 19002B   20323.98242625  .00000035  00000-0  16912-5 0  9993","2 43923  86.6079 124.5931 0002137  86.6223 273.5239 14.72248367 99669"
"2.0","GENERATED VIA SPACE-TRACK.ORG API","2020-11-19T03:58:39","18 SPCS","IRIDIUM 176","2019-002B","EARTH","TEME","UTC","SGP4","2020-11-18T20:18:56.773152","14.72248380","0.00021400","86.6080","124.6500","86.6213","273.5249","0","U","43923","999","9964","0.00000235900000","0.00000040","0.0000000000000","7032.036","97.809","655.406","652.396","PAYLOAD","LARGE","US","2019-01-11","AFWTR","","2879891","165833068","0 IRIDIUM 176","1 43923U 19002B   20323.84649043 +.00000040 +00000-0 +23590-5 0  9999","2 43923 086.6080 124.6500 0002140 086.6213 273.5249 14.72248380099641"
"2.0","GENERATED VIA SPACE-TRACK.ORG API","2020-11-19T03:58:39","18 SPCS","SL-18 DEB","1993-014BJ","EARTH","TEME","UTC","SGP4","2020-11-18T15:03:40.228416","14.81935442","0.00729150","75.7390","282.4443","194.1339","165.7810","0","U","35359","999","70511","0.00053601000000","0.00004428","0.0000000000000","7001.358","97.170","674.273","572.173","DEBRIS","SMALL","CIS","1993-03-25","PKMTR","","2879891","165829410","0 SL-18 DEB","1 35359U 93014BJ  20323.62754894 +.00004428 +00000-0 +53601-3 0  9993","2 35359 075.7390 282.4443 0072915 194.1339 165.7810 14.81935442705112"
"2.0","GENERATED VIA SPACE-TRACK.ORG API","2020-11-18T22:37:40","18 SPCS","IRIDIUM 176","2019-002B","EARTH","TEME","UTC","SGP4","2020-11-18T12:09:34.637760","14.72248378","0.00021450","86.6079","124.7921","86.4927","273.6535","0","U","43923","999","9959","0.00000207800000","0.00000038","0.0000000000000","7032.036","97.809","655.409","652.393","PAYLOAD","LARGE","US","2019-01-11","AFWTR","","2879575","165807087","0 IRIDIUM 176","1 43923U 19002B   20323.50665090 +.00000038 +00000-0 +20780-5 0  9997","2 43923 086.6079 124.7921 0002145 086.4927 273.6535 14.72248378099592"
"2.0","GENERATED VIA SPACE-TRACK.ORG API","2020-11-18T06:46:11","18 SPCS","SL-18 DEB","1993-014BJ","EARTH","TEME","UTC","SGP4","2020-11-18T03:43:09.211008","14.81931582","0.00729660","75.7390","283.2806","195.3399","164.5578","0","U","35359","999","70570","0.00055099000000","0.00004553","0.0000000000000","7001.370","97.170","674.321","572.149","DEBRIS","SMALL","CIS","1993-03-25","PKMTR","","2878940","165774009","0 SL-18 DEB","1 35359U 93014BJ  20323.15496772  .00004553  00000-0  55099-3 0  9991","2 35359  75.7390 283.2806 0072966 195.3399 164.5578 14.81931582705703"
"2.0","GENERATED VIA SPACE-TRACK.ORG API","2020-11-18T06:26:10","18 SPCS","IRIDIUM 176","2019-002B","EARTH","TEME","UTC","SGP4","2020-11-17T23:06:35.224416","14.72248334","0.00021480","86.6080","125.0194","86.2861","273.8601","0","U","43923","999","9951","0.00000087705000","0.00000030","0.0000000000000","7032.036","97.809","655.412","652.391","PAYLOAD","LARGE","US","2019-01-11","AFWTR","","2878728","165768984","0 IRIDIUM 176","1 43923U 19002B   20322.96290769  .00000030  00000-0  87705-6 0  9996","2 43923  86.6080 125.0194 0002148  86.2861 273.8601 14.72248334 99518"
"2.0","GENERATED VIA SPACE-TRACK.ORG API","2020-11-18T02:19:31","18 SPCS","IRIDIUM 176","2019-002B","EARTH","TEME","UTC","SGP4","2020-11-17T19:50:50.366112","14.72248398","0.00021490","86.6080","125.0763","86.2291","273.9172","0","U","43923","999","9949","0.00000301440000","0.00000044","0.0000000000000","7032.036","97.809","655.412","652.390","PAYLOAD","LARGE","US","2019-01-11","AFWTR","","2878669","165766088","0 IRIDIUM 176","1 43923U 19002B   20322.82697183 +.00000044 +00000-0 +30144-5 0  9991","2 43923 086.6080 125.0763 0002149 086.2291 273.9172 14.72248398099499"
"2.0","GENERATED VIA SPACE-TRACK.ORG API","2020-11-17T21:32:50","18 SPCS","IRIDIUM 176","2019-002B","EARTH","TEME","UTC","SGP4","2020-11-17T11:41:28.230720","14.72248393","0.00021540","86.6079","125.2184","86.0680","274.0783","0","U","43923","999","9944","0.00000266550000","0.00000042","0.0000000000000","7032.036","97.809","655.416","652.386","PAYLOAD","LARGE","US","2019-01-11","AFWTR","","2878308","165737778","0 IRIDIUM 176","1 43923U 19002B   20322.48713230 +.00000042 +00000-0 +26655-5 0  9995","2 43923 086.6079 125.2184 0002154 086.0680 274.0783 14.72248393099442"
"2.0","GENERATED VIA SPACE-TRACK.ORG API","2020-11-17T21:32:50","18 SPCS","SL-18 DEB","1993-014BJ","EARTH","TEME","UTC","SGP4","2020-11-17T05:02:06.863424","14.81922346","0.00730650","75.7388","284.9532","197.7386","162.1249","0","U","35359","999","70490","0.00051661000000","0.00004267","0.0000000000000","7001.399","97.171","674.420","572.109","DEBRIS","SMALL","CIS","1993-03-25","PKMTR","","2878308","165731889","0 SL-18 DEB","1 35359U 93014BJ  20322.20980166 +.00004267 +00000-0 +51661-3 0  9994","2 35359 075.7388 284.9532 0073065 197.7386 162.1249 14.81922346704905"
"2.0","GENERATED VIA SPACE-TRACK.ORG API","2020-11-16T23:16:22","18 SPCS","IRIDIUM 176","2019-002B","EARTH","TEME","UTC","SGP4","2020-11-16T17:44:51.534240","14.72248381","0.00021630","86.6079","125.5310","85.7527","274.3937","0","U","43923","999","9933","0.00000459480000","0.00000054","0.0000000000000","7032.036","97.809","655.422","652.380","PAYLOAD","LARGE","US","2019-01-11","AFWTR","","2876320","165595739","0 IRIDIUM 176","1 43923U 19002B   20321.73948535  .00000054  00000-0  45948-5 0  9999","2 43923  86.6079 125.5310 0002163  85.7527 274.3937 14.72248381 99331"
"2.0","GENERATED VIA SPACE-TRACK.ORG API","2020-11-17T00:47:00","18 SPCS","SL-18 DEB","1993-014BJ","EARTH","TEME","UTC","SGP4","2020-11-16T14:27:09.394848","14.81917234","0.00731250","75.7387","286.0285","199.2850","160.5568","0","U","35359","999","70547","0.00053615000000","0.00004429","0.0000000000000","7001.415","97.171","674.478","572.083","DEBRIS","SMALL","CIS","1993-03-25","PKMTR","","2878068","165686149","0 SL-18 DEB","1 35359U 93014BJ  20321.60219207  .00004429  00000-0  53615-3 0  9999","2 35359  75.7387 286.0285 0073125 199.2850 160.5568 14.81917234705471"
"2.0","GENERATED VIA SPACE-TRACK.ORG API","2020-11-16T23:08:35","18 SPCS","IRIDIUM 176","2019-002B","EARTH","TEME","UTC","SGP4","2020-11-16T11:13:21.829728","14.72248253","0.00021650","86.6079","125.6447","85.6793","274.4671","0","U","43923","999","9929","-0.00000178730000","0.00000013","0.0000000000000","7032.036","97.809","655.424","652.379","PAYLOAD","LARGE","US","2019-01-11","AFWTR","","2876066","165566094","0 IRIDIUM 176","1 43923U 19002B   20321.46761377 +.00000013 +00000-0 -17873-5 0  9998","2 43923 086.6079 125.6447 0002165 085.6793 274.4671 14.72248253099298"
"2.0","GENERATED VIA SPACE-TRACK.ORG API","2020-11-16T23:08:35","18 SPCS","SL-18 DEB","1993-014BJ","EARTH","TEME","UTC","SGP4","2020-11-16T07:58:17.123232","14.81914608","0.00731580","75.7386","286.5064","199.9762","159.8559","0","U","35359","999","70477","0.00052514000000","0.00004337","0.0000000000000","7001.424","97.171","674.510","572.068","DEBRIS","SMALL","CIS","1993-03-25","PKMTR","","2876066","165561226","0 SL-18 DEB","1 35359U 93014BJ  20321.33214263 +.00004337 +00000-0 +52514-3 0  9991","2 35359 075.7386 286.5064 0073158 199.9762 159.8559 14.81914608704770"
"2.0","GENERATED VIA SPACE-TRACK.ORG API","2020-11-16T03:18:46","18 SPCS","IRIDIUM 176","2019-002B","EARTH","TEME","UTC","SGP4","2020-11-15T20:32:29.988096","14.72248214","0.00021590","86.6079","125.9005","85.4526","274.6938","0","U","43923","999","9920","-0.00000131660000","0.00000016","0.0000000000000","7032.037","97.809","655.420","652.383","PAYLOAD","LARGE","US","2019-01-11","AFWTR","","2875293","165544276","0 IRIDIUM 176","1 43923U 19002B   20320.85590264 +.00000016 +00000-0 -13166-5 0  9999","2 43923 086.6079 125.9005 0002159 085.4526 274.6938 14.72248214099202"
